start=new Date('2023-02-08T00:00:00.000Z').valueOf();
sats=[{"NORAD_CAT_ID":"52457","TLE_LINE1":"1 52457U 22049G   23038.54701207  .00031789  00000-0  20043-2 0  9991","ARG_OF_PERICENTER":"96.2767","ELEMENT_SET_NO":"999","COUNTRY_CODE":"US","RCS_SIZE":"LARGE","MEAN_ELEMENT_THEORY":"SGP4","MEAN_ANOMALY":"263.8375","OBJECT_TYPE":"PAYLOAD","REV_AT_EPOCH":"4210","MEAN_MOTION_DDOT":"0.0000000000000","EPOCH":"2023-02-07T13:07:41.842848","ECCENTRICITY":"0.00013170","GP_ID":"224704953","PERIOD":"95.435","REF_FRAME":"TEME","DECAY_DATE":null,"FILE":"3777208","PERIAPSIS":"538.714","OBJECT_ID":"2022-049G","MEAN_MOTION_DOT":"0.00031789","MEAN_MOTION":"15.08879460","BSTAR":"0.00200430000000","APOAPSIS":"540.536","CLASSIFICATION_TYPE":"U","TIME_SYSTEM":"UTC","TLE_LINE2":"2 52457  53.2137  84.5832 0001317  96.2767 263.8375 15.08879460 42104","OBJECT_NAME":"STARLINK-3899","CENTER_NAME":"EARTH","EPHEMERIS_TYPE":"0","SITE":"AFETR","RA_OF_ASC_NODE":"84.5832","SEMIMAJOR_AXIS":"6917.760","INCLINATION":"53.2137","LAUNCH_DATE":"2022-05-06"},{"TLE_LINE2":"2 52458  53.2151  84.8859 0001220  93.4034 266.7098 15.08857865 42099","OBJECT_NAME":"STARLINK-3898","CENTER_NAME":"EARTH","OBJECT_ID":"2022-049H","MEAN_MOTION_DOT":"0.00004222","BSTAR":"0.00028308000000","MEAN_MOTION":"15.08857865","APOAPSIS":"540.535","CLASSIFICATION_TYPE":"U","TIME_SYSTEM":"UTC","INCLINATION":"53.2151","LAUNCH_DATE":"2022-05-06","EPHEMERIS_TYPE":"0","SITE":"AFETR","RA_OF_ASC_NODE":"84.8859","SEMIMAJOR_AXIS":"6917.826","RCS_SIZE":"LARGE","MEAN_ELEMENT_THEORY":"SGP4","MEAN_ANOMALY":"266.7098","OBJECT_TYPE":"PAYLOAD","REV_AT_EPOCH":"4209","MEAN_MOTION_DDOT":"0.0000000000000","NORAD_CAT_ID":"52458","TLE_LINE1":"1 52458U 22049H   23038.47709334  .00004222  00000-0  28308-3 0  9998","ARG_OF_PERICENTER":"93.4034","ELEMENT_SET_NO":"999","COUNTRY_CODE":"US","DECAY_DATE":null,"FILE":"3777208","PERIAPSIS":"538.847","ECCENTRICITY":"0.00012200","EPOCH":"2023-02-07T11:27:00.864576","PERIOD":"95.436","GP_ID":"224705198","REF_FRAME":"TEME"},{"ECCENTRICITY":"0.00010350","EPOCH":"2023-02-07T12:41:09.712896","GP_ID":"224705446","PERIOD":"95.435","REF_FRAME":"TEME","DECAY_DATE":null,"FILE":"3777208","PERIAPSIS":"538.887","NORAD_CAT_ID":"52459","TLE_LINE1":"1 52459U 22157A   23038.52858464  .00022571  00000-0  14299-2 0  9994","ARG_OF_PERICENTER":"98.1983","ELEMENT_SET_NO":"999","COUNTRY_CODE":"US","RCS_SIZE":"LARGE","MEAN_ANOMALY":"261.9127","MEAN_ELEMENT_THEORY":"SGP4","OBJECT_TYPE":"PAYLOAD","REV_AT_EPOCH":"4223","MEAN_MOTION_DDOT":"0.0000000000000","EPHEMERIS_TYPE":"0","SITE":"AFETR","RA_OF_ASC_NODE":"74.6533","SEMIMAJOR_AXIS":"6917.738","INCLINATION":"53.2166","LAUNCH_DATE":"2022-05-06","OBJECT_ID":"2022-049J","MEAN_MOTION_DOT":"0.00022571","MEAN_MOTION":"15.08886721","BSTAR":"0.00142990000000","APOAPSIS":"540.319","TIME_SYSTEM":"UTC","CLASSIFICATION_TYPE":"U","TLE_LINE2":"2 52459  53.2166  74.6533 0001035  98.1983 261.9127 15.08886721 42230","OBJECT_NAME":"STARLINK-3856","CENTER_NAME":"EARTH"},{"NORAD_CAT_ID":"52460","ELEMENT_SET_NO":"999","COUNTRY_CODE":"US","TLE_LINE1":"1 52460U 22049K   23038.52585230  .00000005  00000-0  18382-4 0  9991","ARG_OF_PERICENTER":"107.4601","OBJECT_TYPE":"PAYLOAD","RCS_SIZE":"LARGE","MEAN_ELEMENT_THEORY":"SGP4","MEAN_ANOMALY":"252.6578","REV_AT_EPOCH":"4223","MEAN_MOTION_DDOT":"0.0000000000000","ECCENTRICITY":"0.00017070","EPOCH":"2023-02-07T12:37:13.638720","REF_FRAME":"TEME","GP_ID":"224705688","PERIOD":"95.436","DECAY_DATE":null,"FILE":"3777208","PERIAPSIS":"538.509","MEAN_MOTION_DOT":"0.00000005","OBJECT_ID":"2022-049K","APOAPSIS":"540.871","CLASSIFICATION_TYPE":"U","TIME_SYSTEM":"UTC","BSTAR":"0.00001838200000","MEAN_MOTION":"15.08858210","TLE_LINE2":"2 52460  53.2179  74.6639 0001707 107.4601 252.6578 15.08858210 42239","OBJECT_NAME":"STARLINK-3865","CENTER_NAME":"EARTH","EPHEMERIS_TYPE":"0","SITE":"AFETR","RA_OF_ASC_NODE":"74.6639","SEMIMAJOR_AXIS":"6917.825","INCLINATION":"53.2179","LAUNCH_DATE":"2022-05-06"},{"PERIOD":"95.437","GP_ID":"224719555","REF_FRAME":"TEME","EPOCH":"2023-02-07T07:51:01.918656","ECCENTRICITY":"0.00012330","PERIAPSIS":"538.867","FILE":"3777909","DECAY_DATE":null,"ARG_OF_PERICENTER":"96.5929","TLE_LINE1":"1 52461U 22049L   23038.32710554  .00000959  00000-0  78299-4 0  9990","COUNTRY_CODE":"US","ELEMENT_SET_NO":"999","NORAD_CAT_ID":"52461","MEAN_MOTION_DDOT":"0.0000000000000","REV_AT_EPOCH":"4250","MEAN_ANOMALY":"263.5204","MEAN_ELEMENT_THEORY":"SGP4","RCS_SIZE":"LARGE","OBJECT_TYPE":"PAYLOAD","SEMIMAJOR_AXIS":"6917.855","RA_OF_ASC_NODE":"65.5593","EPHEMERIS_TYPE":"0","SITE":"AFETR","LAUNCH_DATE":"2022-05-06","INCLINATION":"53.2173","BSTAR":"0.00007829900000","MEAN_MOTION":"15.08848282","TIME_SYSTEM":"UTC","CLASSIFICATION_TYPE":"U","APOAPSIS":"540.573","OBJECT_ID":"2022-049L","MEAN_MOTION_DOT":"0.00000959","CENTER_NAME":"EARTH","OBJECT_NAME":"STARLINK-3900","TLE_LINE2":"2 52461  53.2173  65.5593 0001233  96.5929 263.5204 15.08848282 42502"},{"OBJECT_TYPE":"PAYLOAD","RCS_SIZE":"LARGE","MEAN_ELEMENT_THEORY":"SGP4","MEAN_ANOMALY":"267.3458","REV_AT_EPOCH":"4240","MEAN_MOTION_DDOT":"0.0000000000000","NORAD_CAT_ID":"52462","ELEMENT_SET_NO":"999","COUNTRY_CODE":"US","TLE_LINE1":"1 52462U 22049M   23038.58745577  .00019304  00000-0  12264-2 0  9994","ARG_OF_PERICENTER":"92.7698","DECAY_DATE":null,"FILE":"3777141","PERIAPSIS":"538.642","ECCENTRICITY":"0.00014330","EPOCH":"2023-02-07T14:05:56.178528","REF_FRAME":"TEME","PERIOD":"95.435","GP_ID":"224679855","TLE_LINE2":"2 52462  53.2171  74.3881 0001433  92.7698 267.3458 15.08876618 42408","OBJECT_NAME":"STARLINK-3903","CENTER_NAME":"EARTH","MEAN_MOTION_DOT":"0.00019304","OBJECT_ID":"2022-049M","APOAPSIS":"540.625","TIME_SYSTEM":"UTC","CLASSIFICATION_TYPE":"U","MEAN_MOTION":"15.08876618","BSTAR":"0.00122640000000","INCLINATION":"53.2171","LAUNCH_DATE":"2022-05-06","SITE":"AFETR","EPHEMERIS_TYPE":"0","RA_OF_ASC_NODE":"74.3881","SEMIMAJOR_AXIS":"6917.768"},{"OBJECT_TYPE":"PAYLOAD","MEAN_ELEMENT_THEORY":"SGP4","MEAN_ANOMALY":"279.1667","RCS_SIZE":"LARGE","MEAN_MOTION_DDOT":"0.0000000000000","REV_AT_EPOCH":"4237","NORAD_CAT_ID":"52463","COUNTRY_CODE":"US","ELEMENT_SET_NO":"999","ARG_OF_PERICENTER":"80.9434","TLE_LINE1":"1 52463U 22049N   23038.52213826  .00006936  00000-0  45320-3 0  9993","DECAY_DATE":null,"PERIAPSIS":"539.015","FILE":"3777208","ECCENTRICITY":"0.00009650","EPOCH":"2023-02-07T12:31:52.745664","REF_FRAME":"TEME","GP_ID":"224705947","PERIOD":"95.436","TLE_LINE2":"2 52463  53.2167  64.6806 0000965  80.9434 279.1667 15.08860624 42378","CENTER_NAME":"EARTH","OBJECT_NAME":"STARLINK-3885","MEAN_MOTION_DOT":"0.00006936","OBJECT_ID":"2022-049N","TIME_SYSTEM":"UTC","CLASSIFICATION_TYPE":"U","APOAPSIS":"540.350","BSTAR":"0.00045320000000","MEAN_MOTION":"15.08860624","INCLINATION":"53.2167","LAUNCH_DATE":"2022-05-06","SITE":"AFETR","EPHEMERIS_TYPE":"0","SEMIMAJOR_AXIS":"6917.817","RA_OF_ASC_NODE":"64.6806"},{"ECCENTRICITY":"0.00013830","EPOCH":"2023-02-07T12:35:51.379872","REF_FRAME":"TEME","PERIOD":"95.437","GP_ID":"224706189","DECAY_DATE":null,"PERIAPSIS":"538.763","FILE":"3777208","NORAD_CAT_ID":"52464","COUNTRY_CODE":"US","ELEMENT_SET_NO":"999","ARG_OF_PERICENTER":"101.0130","TLE_LINE1":"1 52464U 22049P   23038.52490023  .00002168  00000-0  15420-3 0  9991","OBJECT_TYPE":"PAYLOAD","MEAN_ELEMENT_THEORY":"SGP4","MEAN_ANOMALY":"259.1018","RCS_SIZE":"LARGE","MEAN_MOTION_DDOT":"0.0000000000000","REV_AT_EPOCH":"4223","SITE":"AFETR","EPHEMERIS_TYPE":"0","SEMIMAJOR_AXIS":"6917.854","RA_OF_ASC_NODE":"74.6746","INCLINATION":"53.2183","LAUNCH_DATE":"2022-05-06","MEAN_MOTION_DOT":"0.00002168","OBJECT_ID":"2022-049P","TIME_SYSTEM":"UTC","CLASSIFICATION_TYPE":"U","APOAPSIS":"540.676","BSTAR":"0.00015420000000","MEAN_MOTION":"15.08848501","TLE_LINE2":"2 52464  53.2183  74.6746 0001383 101.0130 259.1018 15.08848501 42237","CENTER_NAME":"EARTH","OBJECT_NAME":"STARLINK-3904"},{"ARG_OF_PERICENTER":"88.6365","TLE_LINE1":"1 52465U 22049Q   23038.38598383  .00001750  00000-0  12800-3 0  9999","COUNTRY_CODE":"US","ELEMENT_SET_NO":"999","NORAD_CAT_ID":"52465","MEAN_MOTION_DDOT":"0.0000000000000","REV_AT_EPOCH":"4235","MEAN_ELEMENT_THEORY":"SGP4","MEAN_ANOMALY":"271.4780","RCS_SIZE":"LARGE","OBJECT_TYPE":"PAYLOAD","GP_ID":"224704954","PERIOD":"95.437","REF_FRAME":"TEME","EPOCH":"2023-02-07T09:15:49.002912","ECCENTRICITY":"0.00013290","PERIAPSIS":"538.813","FILE":"3777208","DECAY_DATE":null,"BSTAR":"0.00012800000000","MEAN_MOTION":"15.08844129","TIME_SYSTEM":"UTC","CLASSIFICATION_TYPE":"U","APOAPSIS":"540.652","OBJECT_ID":"2022-049Q","MEAN_MOTION_DOT":"0.00001750","CENTER_NAME":"EARTH","OBJECT_NAME":"STARLINK-3863","TLE_LINE2":"2 52465  53.2192  65.2995 0001329  88.6365 271.4780 15.08844129 42358","SEMIMAJOR_AXIS":"6917.868","RA_OF_ASC_NODE":"65.2995","EPHEMERIS_TYPE":"0","SITE":"AFETR","LAUNCH_DATE":"2022-05-06","INCLINATION":"53.2192"},{"TLE_LINE2":"2 52466  53.2167  74.7218 0001439 103.2789 256.8363 15.08856709 42395","CENTER_NAME":"EARTH","OBJECT_NAME":"STARLINK-3840","MEAN_MOTION_DOT":"0.00001766","OBJECT_ID":"2022-049R","CLASSIFICATION_TYPE":"U","TIME_SYSTEM":"UTC","APOAPSIS":"540.690","BSTAR":"0.00012899000000","MEAN_MOTION":"15.08856709","INCLINATION":"53.2167","LAUNCH_DATE":"2022-05-06","SITE":"AFETR","EPHEMERIS_TYPE":"0","SEMIMAJOR_AXIS":"6917.829","RA_OF_ASC_NODE":"74.7218","OBJECT_TYPE":"PAYLOAD","MEAN_ANOMALY":"256.8363","MEAN_ELEMENT_THEORY":"SGP4","RCS_SIZE":"LARGE","MEAN_MOTION_DDOT":"0.0000000000000","REV_AT_EPOCH":"4239","NORAD_CAT_ID":"52466","COUNTRY_CODE":"US","ELEMENT_SET_NO":"999","ARG_OF_PERICENTER":"103.2789","TLE_LINE1":"1 52466U 22049R   23038.51385192  .00001766  00000-0  12899-3 0  9992","DECAY_DATE":null,"PERIAPSIS":"538.699","FILE":"3777910","ECCENTRICITY":"0.00014390","EPOCH":"2023-02-07T12:19:56.805888","REF_FRAME":"TEME","GP_ID":"224719560","PERIOD":"95.436"}];
